{
  "type": "FeatureCollection",
  "features": [
    {
      "type": "Feature",
      "properties": {
        "norad_id": 36744,
        "name": "COMS 1",
        "group": "weather",
        "lat": -0.5925860570080096,
        "lon": 69.9194214566953,
        "alt_km": 35790.64309489152,
        "timestamp": "2025-12-09T14:52:25.808051+00:00",
        "meta_object_name": "COMS 1",
        "meta_object_id": "2010-032A",
        "meta_epoch": "2025-12-08T23:09:51.522624",
        "meta_mean_motion": 1.0027117,
        "meta_eccentricity": 0.00011352,
        "meta_inclination": 4.3321,
        "meta_ra_of_asc_node": 78.0387,
        "meta_arg_of_pericenter": 200.7728,
        "meta_mean_anomaly": 274.7928,
        "meta_ephemeris_type": 0,
        "meta_classification_type": "U",
        "meta_norad_cat_id": 36744,
        "meta_element_set_no": 999,
        "meta_rev_at_epoch": 4918,
        "meta_bstar": 0,
        "meta_mean_motion_dot": -3.43e-06,
        "meta_mean_motion_ddot": 0,
        "tle_line1": "1 36744U 10032A   25342.96517966 -.00000343  00000+0  00000+0 0  9994",
        "tle_line2": "2 36744   4.3321  78.0387 0001135 200.7728 274.7928  1.00271170 49188"
      },
      "geometry": {
        "type": "Point",
        "coordinates": [
          69.9194214566953,
          -0.5925860570080096
        ]
      }
    },
    {
      "type": "Feature",
      "properties": {
        "norad_id": 37214,
        "name": "FENGYUN 3B",
        "group": "weather",
        "lat": -7.373296962931398,
        "lon": 24.748847204543587,
        "alt_km": 831.238156461126,
        "timestamp": "2025-12-09T14:52:25.808063+00:00",
        "meta_object_name": "FENGYUN 3B",
        "meta_object_id": "2010-059A",
        "meta_epoch": "2025-12-09T06:50:47.689152",
        "meta_mean_motion": 14.14787251,
        "meta_eccentricity": 0.00222678,
        "meta_inclination": 98.9906,
        "meta_ra_of_asc_node": 23.2382,
        "meta_arg_of_pericenter": 7.6126,
        "meta_mean_anomaly": 82.5198,
        "meta_ephemeris_type": 0,
        "meta_classification_type": "U",
        "meta_norad_cat_id": 37214,
        "meta_element_set_no": 999,
        "meta_rev_at_epoch": 78057,
        "meta_bstar": 2.134127e-05,
        "meta_mean_motion_dot": -4e-08,
        "meta_mean_motion_ddot": 0,
        "tle_line1": "1 37214U 10059A   25343.28527418 -.00000004  00000+0  21341-4 0  9995",
        "tle_line2": "2 37214  98.9906  23.2382 0022267   7.6126  82.5198 14.14787251780571"
      },
      "geometry": {
        "type": "Point",
        "coordinates": [
          24.748847204543587,
          -7.373296962931398
        ]
      }
    },
    {
      "type": "Feature",
      "properties": {
        "norad_id": 37849,
        "name": "SUOMI NPP",
        "group": "weather",
        "lat": 38.785950194781016,
        "lon": 108.1213750660294,
        "alt_km": 822.545554230077,
        "timestamp": "2025-12-09T14:52:25.808074+00:00",
        "meta_object_name": "SUOMI NPP",
        "meta_object_id": "2011-061A",
        "meta_epoch": "2025-12-09T07:26:50.007264",
        "meta_mean_motion": 14.19512791,
        "meta_eccentricity": 0.00021349,
        "meta_inclination": 98.7769,
        "meta_ra_of_asc_node": 280.6829,
        "meta_arg_of_pericenter": 126.132,
        "meta_mean_anomaly": 234.0054,
        "meta_ephemeris_type": 0,
        "meta_classification_type": "U",
        "meta_norad_cat_id": 37849,
        "meta_element_set_no": 999,
        "meta_rev_at_epoch": 73150,
        "meta_bstar": 0.00012413587,
        "meta_mean_motion_dot": 2.17e-06,
        "meta_mean_motion_ddot": 0,
        "tle_line1": "1 37849U 11061A   25343.31030101  .00000217  00000+0  12414-3 0  9990",
        "tle_line2": "2 37849  98.7769 280.6829 0002134 126.1320 234.0054 14.19512791731503"
      },
      "geometry": {
        "type": "Point",
        "coordinates": [
          108.1213750660294,
          38.785950194781016
        ]
      }
    },
    {
      "type": "Feature",
      "properties": {
        "norad_id": 38552,
        "name": "METEOSAT-10 (MSG-3)",
        "group": "weather",
        "lat": -3.6749040587226296,
        "lon": -58.20396726858158,
        "alt_km": 35782.28553542286,
        "timestamp": "2025-12-09T14:52:25.808086+00:00",
        "meta_object_name": "METEOSAT-10 (MSG-3)",
        "meta_object_id": "2012-035B",
        "meta_epoch": "2025-12-09T01:35:17.617632",
        "meta_mean_motion": 1.0027383,
        "meta_eccentricity": 8.734e-05,
        "meta_inclination": 4.2204,
        "meta_ra_of_asc_node": 61.7307,
        "meta_arg_of_pericenter": 239.048,
        "meta_mean_anomaly": 161.2485,
        "meta_ephemeris_type": 0,
        "meta_classification_type": "U",
        "meta_norad_cat_id": 38552,
        "meta_element_set_no": 999,
        "meta_rev_at_epoch": 4895,
        "meta_bstar": 0,
        "meta_mean_motion_dot": -5e-08,
        "meta_mean_motion_ddot": 0,
        "tle_line1": "1 38552U 12035B   25343.06617613 -.00000005  00000+0  00000+0 0  9995",
        "tle_line2": "2 38552   4.2204  61.7307 0000873 239.0480 161.2485  1.00273830 48952"
      },
      "geometry": {
        "type": "Point",
        "coordinates": [
          -58.20396726858158,
          -3.6749040587226296
        ]
      }
    },
    {
      "type": "Feature",
      "properties": {
        "norad_id": 38771,
        "name": "METOP-B",
        "group": "weather",
        "lat": -28.16583773367161,
        "lon": 38.323143219247704,
        "alt_km": 828.3601340232553,
        "timestamp": "2025-12-09T14:52:25.808098+00:00",
        "meta_object_name": "METOP-B",
        "meta_object_id": "2012-049A",
        "meta_epoch": "2025-12-09T06:33:38.474208",
        "meta_mean_motion": 14.2140659,
        "meta_eccentricity": 0.00027674,
        "meta_inclination": 98.6804,
        "meta_ra_of_asc_node": 33.2908,
        "meta_arg_of_pericenter": 151.6945,
        "meta_mean_anomaly": 208.4383,
        "meta_ephemeris_type": 0,
        "meta_classification_type": "U",
        "meta_norad_cat_id": 38771,
        "meta_element_set_no": 999,
        "meta_rev_at_epoch": 68628,
        "meta_bstar": 0.00014277368,
        "meta_mean_motion_dot": 2.68e-06,
        "meta_mean_motion_ddot": 0,
        "tle_line1": "1 38771U 12049A   25343.27336197  .00000268  00000+0  14277-3 0  9996",
        "tle_line2": "2 38771  98.6804  33.2908 0002767 151.6945 208.4383 14.21406590686281"
      },
      "geometry": {
        "type": "Point",
        "coordinates": [
          38.323143219247704,
          -28.16583773367161
        ]
      }
    },
    {
      "type": "Feature",
      "properties": {
        "norad_id": 39216,
        "name": "INSAT-3D",
        "group": "weather",
        "lat": -0.3211134975753872,
        "lon": 71.2617062883564,
        "alt_km": 35793.305573169564,
        "timestamp": "2025-12-09T14:52:25.808110+00:00",
        "meta_object_name": "INSAT-3D",
        "meta_object_id": "2013-038B",
        "meta_epoch": "2025-12-09T05:37:47.235936",
        "meta_mean_motion": 1.00271317,
        "meta_eccentricity": 0.00016565,
        "meta_inclination": 1.436,
        "meta_ra_of_asc_node": 85.0262,
        "meta_arg_of_pericenter": 162.134,
        "meta_mean_anomaly": 45.0612,
        "meta_ephemeris_type": 0,
        "meta_classification_type": "U",
        "meta_norad_cat_id": 39216,
        "meta_element_set_no": 999,
        "meta_rev_at_epoch": 4517,
        "meta_bstar": 0,
        "meta_mean_motion_dot": -3.37e-06,
        "meta_mean_motion_ddot": 0,
        "tle_line1": "1 39216U 13038B   25343.23457449 -.00000337  00000+0  00000+0 0  9993",
        "tle_line2": "2 39216   1.4360  85.0262 0001656 162.1340  45.0612  1.00271317 45172"
      },
      "geometry": {
        "type": "Point",
        "coordinates": [
          71.2617062883564,
          -0.3211134975753872
        ]
      }
    },
    {
      "type": "Feature",
      "properties": {
        "norad_id": 39260,
        "name": "FENGYUN 3C",
        "group": "weather",
        "lat": -74.64489286630848,
        "lon": -5.658497226726909,
        "alt_km": 845.0435003968814,
        "timestamp": "2025-12-09T14:52:25.808121+00:00",
        "meta_object_name": "FENGYUN 3C",
        "meta_object_id": "2013-052A",
        "meta_epoch": "2025-12-09T06:45:25.165728",
        "meta_mean_motion": 14.15694771,
        "meta_eccentricity": 0.00140869,
        "meta_inclination": 98.476,
        "meta_ra_of_asc_node": 321.1298,
        "meta_arg_of_pericenter": 206.3022,
        "meta_mean_anomaly": 153.7439,
        "meta_ephemeris_type": 0,
        "meta_classification_type": "U",
        "meta_norad_cat_id": 39260,
        "meta_element_set_no": 999,
        "meta_rev_at_epoch": 63169,
        "meta_bstar": 0.00014067826,
        "meta_mean_motion_dot": 2.35e-06,
        "meta_mean_motion_ddot": 0,
        "tle_line1": "1 39260U 13052A   25343.28154127  .00000235  00000+0  14068-3 0  9999",
        "tle_line2": "2 39260  98.4760 321.1298 0014086 206.3022 153.7439 14.15694771631698"
      },
      "geometry": {
        "type": "Point",
        "coordinates": [
          -5.658497226726909,
          -74.64489286630848
        ]
      }
    }
  ]
}